{
  "links" : {
    "next" : "https://api.nasa.gov/neo/rest/v1/feed?start_date=2011-01-16&end_date=2011-01-16&detailed=true&api_key=t0TVs3DtDT2H8Oy2Zy8m2eVrNsAVKAexjcZXUckd",
    "prev" : "https://api.nasa.gov/neo/rest/v1/feed?start_date=2011-01-14&end_date=2011-01-14&detailed=true&api_key=t0TVs3DtDT2H8Oy2Zy8m2eVrNsAVKAexjcZXUckd",
    "self" : "https://api.nasa.gov/neo/rest/v1/feed?start_date=2011-01-15&end_date=2011-01-15&detailed=true&api_key=t0TVs3DtDT2H8Oy2Zy8m2eVrNsAVKAexjcZXUckd"
  },
  "element_count" : 3,
  "near_earth_objects" : {
    "2011-01-15" : [ {
      "links" : {
        "self" : "https://api.nasa.gov/neo/rest/v1/neo/3555083?api_key=t0TVs3DtDT2H8Oy2Zy8m2eVrNsAVKAexjcZXUckd"
      },
      "neo_reference_id" : "3555083",
      "name" : "(2011 AL5)",
      "nasa_jpl_url" : "http://ssd.jpl.nasa.gov/sbdb.cgi?sstr=3555083",
      "absolute_magnitude_h" : 22.7,
      "estimated_diameter" : {
        "kilometers" : {
          "estimated_diameter_min" : 0.0766575574,
          "estimated_diameter_max" : 0.1714115092
        },
        "meters" : {
          "estimated_diameter_min" : 76.6575573531,
          "estimated_diameter_max" : 171.4115092306
        },
        "miles" : {
          "estimated_diameter_min" : 0.0476327831,
          "estimated_diameter_max" : 0.1065101409
        },
        "feet" : {
          "estimated_diameter_min" : 251.5011804664,
          "estimated_diameter_max" : 562.3737359442
        }
      },
      "is_potentially_hazardous_asteroid" : false,
      "close_approach_data" : [ {
        "close_approach_date" : "2011-01-15",
        "epoch_date_close_approach" : 1295078400000,
        "relative_velocity" : {
          "kilometers_per_second" : "1.3210015585",
          "kilometers_per_hour" : "4755.6056105889",
          "miles_per_hour" : "2954.9483862018"
        },
        "miss_distance" : {
          "astronomical" : "0.312513113",
          "lunar" : "121.5676040649",
          "kilometers" : "46751296",
          "miles" : "29049908"
        },
        "orbiting_body" : "Earth"
      } ],
      "orbital_data" : {
        "orbit_id" : "12",
        "orbit_determination_date" : "2017-04-06 08:55:02",
        "orbit_uncertainty" : "7",
        "minimum_orbit_intersection" : ".304207",
        "jupiter_tisserand_invariant" : "3.438",
        "epoch_osculation" : "2458000.5",
        "eccentricity" : ".446048412690774",
        "semi_major_axis" : "2.319897792054919",
        "inclination" : "1.459931115510595",
        "ascending_node_longitude" : "356.6837986096629",
        "orbital_period" : "1290.629846602508",
        "perihelion_distance" : "1.285111064303991",
        "perihelion_argument" : "112.6024632957796",
        "aphelion_distance" : "3.354684519805847",
        "perihelion_time" : "2458147.480117092994",
        "mean_anomaly" : "319.0023101567293",
        "mean_motion" : ".2789335772356997",
        "equinox" : "J2000"
      }
    }, {
      "links" : {
        "self" : "https://api.nasa.gov/neo/rest/v1/neo/3557084?api_key=t0TVs3DtDT2H8Oy2Zy8m2eVrNsAVKAexjcZXUckd"
      },
      "neo_reference_id" : "3557084",
      "name" : "(2011 BH59)",
      "nasa_jpl_url" : "http://ssd.jpl.nasa.gov/sbdb.cgi?sstr=3557084",
      "absolute_magnitude_h" : 24.8,
      "estimated_diameter" : {
        "kilometers" : {
          "estimated_diameter_min" : 0.0291443905,
          "estimated_diameter_max" : 0.0651688382
        },
        "meters" : {
          "estimated_diameter_min" : 29.1443904535,
          "estimated_diameter_max" : 65.1688382168
        },
        "miles" : {
          "estimated_diameter_min" : 0.018109479,
          "estimated_diameter_max" : 0.0404940262
        },
        "feet" : {
          "estimated_diameter_min" : 95.6180819754,
          "estimated_diameter_max" : 213.8085311752
        }
      },
      "is_potentially_hazardous_asteroid" : false,
      "close_approach_data" : [ {
        "close_approach_date" : "2011-01-15",
        "epoch_date_close_approach" : 1295078400000,
        "relative_velocity" : {
          "kilometers_per_second" : "2.1194295772",
          "kilometers_per_hour" : "7629.946477983",
          "miles_per_hour" : "4740.9520212778"
        },
        "miss_distance" : {
          "astronomical" : "0.1612835957",
          "lunar" : "62.7393188477",
          "kilometers" : "24127682",
          "miles" : "14992247"
        },
        "orbiting_body" : "Earth"
      } ],
      "orbital_data" : {
        "orbit_id" : "6",
        "orbit_determination_date" : "2017-04-06 08:54:42",
        "orbit_uncertainty" : "9",
        "minimum_orbit_intersection" : ".16126",
        "jupiter_tisserand_invariant" : "4.266",
        "epoch_osculation" : "2455592.5",
        "eccentricity" : ".2960812410570201",
        "semi_major_axis" : "1.62632937526463",
        "inclination" : "2.917932650093574",
        "ascending_node_longitude" : "119.1821826416486",
        "orbital_period" : "757.5497976373736",
        "perihelion_distance" : "1.14480375546879",
        "perihelion_argument" : "354.6139417224309",
        "aphelion_distance" : "2.10785499506047",
        "perihelion_time" : "2455575.754805964594",
        "mean_anomaly" : "7.957588889267704",
        "mean_motion" : ".4752162842928063",
        "equinox" : "J2000"
      }
    }, {
      "links" : {
        "self" : "https://api.nasa.gov/neo/rest/v1/neo/3573154?api_key=t0TVs3DtDT2H8Oy2Zy8m2eVrNsAVKAexjcZXUckd"
      },
      "neo_reference_id" : "3573154",
      "name" : "(2011 OL5)",
      "nasa_jpl_url" : "http://ssd.jpl.nasa.gov/sbdb.cgi?sstr=3573154",
      "absolute_magnitude_h" : 20.2,
      "estimated_diameter" : {
        "kilometers" : {
          "estimated_diameter_min" : 0.2424124811,
          "estimated_diameter_max" : 0.5420507863
        },
        "meters" : {
          "estimated_diameter_min" : 242.4124811008,
          "estimated_diameter_max" : 542.0507863358
        },
        "miles" : {
          "estimated_diameter_min" : 0.1506280858,
          "estimated_diameter_max" : 0.3368146392
        },
        "feet" : {
          "estimated_diameter_min" : 795.3165644948,
          "estimated_diameter_max" : 1778.3819018419
        }
      },
      "is_potentially_hazardous_asteroid" : false,
      "close_approach_data" : [ {
        "close_approach_date" : "2011-01-15",
        "epoch_date_close_approach" : 1295078400000,
        "relative_velocity" : {
          "kilometers_per_second" : "18.0183396605",
          "kilometers_per_hour" : "64866.0227776603",
          "miles_per_hour" : "40305.2239864857"
        },
        "miss_distance" : {
          "astronomical" : "0.4858846147",
          "lunar" : "189.0091094971",
          "kilometers" : "72687304",
          "miles" : "45165796"
        },
        "orbiting_body" : "Earth"
      } ],
      "orbital_data" : {
        "orbit_id" : "49",
        "orbit_determination_date" : "2017-04-06 08:53:09",
        "orbit_uncertainty" : "0",
        "minimum_orbit_intersection" : ".119386",
        "jupiter_tisserand_invariant" : "5.182",
        "epoch_osculation" : "2458000.5",
        "eccentricity" : ".1582994399307163",
        "semi_major_axis" : "1.221222962806302",
        "inclination" : "15.73210382744206",
        "ascending_node_longitude" : "105.7172765813125",
        "orbital_period" : "492.93637790342",
        "perihelion_distance" : "1.027904051763535",
        "perihelion_argument" : "64.90665549164987",
        "aphelion_distance" : "1.41454187384907",
        "perihelion_time" : "2458070.767438645122",
        "mean_anomaly" : "308.6824688820185",
        "mean_motion" : ".7303173718506408",
        "equinox" : "J2000"
      }
    } ]
  }
}